     2.11           G: GLONASS NAV DATA                     RINEX VERSION / TYPE
LEICA GEO OFFICE 8.4                    2-10-20 22:21       PGM / RUN BY / DATE
                                                            END OF HEADER
24 20  9 30  2 15  2.0 1.509580761194D-05 9.094947017729D-13-2.402100000000D+05
   -2.013526904297D+04-1.301602363586D+00-2.793967723846D-09 0.000000000000D+00
    1.170364453125D+04 5.941152572632D-01 3.725290298462D-09 2.000000000000D+00
    1.039158007813D+04-3.197673797607D+00 0.000000000000D+00 0.000000000000D+00
24 20  9 30  2 45  2.0 1.509860157967D-05 9.094947017729D-13-2.394000000000D+05
   -2.171652539063D+04-4.542846679688D-01-1.862645149231D-09 0.000000000000D+00
    1.264879882813D+04 4.134931564331D-01 4.656612873077D-09 2.000000000000D+00
    4.308103515625D+03-3.517838478088D+00 0.000000000000D+00 0.000000000000D+00
24 20  9 30  3 15  2.0 1.510046422482D-05 9.094947017729D-13-2.375700000000D+05
   -2.180188427734D+04 3.414316177368D-01-9.313225746155D-10 0.000000000000D+00
    1.304593408203D+04-9.436607360840D-03 4.656612873077D-09 2.000000000000D+00
   -2.108861328125D+03-3.565754890442D+00 0.000000000000D+00 0.000000000000D+00
24 20  9 30 11 15  2.0 1.513957977295D-05 1.818989403546D-12-2.082900000000D+05
    1.198050781250D+03 2.779232978821D+00 9.313225746155D-10 0.000000000000D+00
   -1.136750439453D+04 1.420662879944D+00 9.313225746155D-10 2.000000000000D+00
    2.282042822266D+04 5.598735809326D-01-1.862645149231D-09 0.000000000000D+00
24 20  9 30 11 45  2.0 1.514237374067D-05 1.818989403546D-12-2.067900000000D+05
    6.418022949219D+03 2.973074913025D+00 1.862645149231D-09 0.000000000000D+00
   -9.168364257813D+03 1.002015113831D+00 0.000000000000D+00 2.000000000000D+00
    2.293460937500D+04-4.338970184326D-01-1.862645149231D-09 0.000000000000D+00
24 20  9 30 12 15  2.0 1.514516770840D-05 1.818989403546D-12-2.052000000000D+05
    1.172016015625D+04 2.866862297058D+00 2.793967723846D-09 0.000000000000D+00
   -7.803653320313D+03 5.113687515259D-01 0.000000000000D+00 2.000000000000D+00
    2.127825927734D+04-1.394648551941D+00-1.862645149231D-09 0.000000000000D+00
24 20  9 30 19 45  2.0 1.518055796623D-05 1.818989403546D-12-1.775100000000D+05
    6.307206054688D+03 2.564735412598D-01 3.725290298462D-09 0.000000000000D+00
    2.455717626953D+04 3.557090759277D-01 3.725290298462D-09 2.000000000000D+00
   -2.900474609375D+03 3.548825263977D+00 0.000000000000D+00 0.000000000000D+00
24 20  9 30 20 15  2.0 1.518335193396D-05 1.818989403546D-12-1.764000000000D+05
    6.588680175781D+03 1.662540435791D-02 3.725290298462D-09 0.000000000000D+00
    2.440607519531D+04-5.121469497681D-01 2.793967723846D-09 2.000000000000D+00
    3.516975097656D+03 3.535438537598D+00-9.313225746155D-10 0.000000000000D+00
24 20  9 30 20 45  2.0 1.518614590168D-05 1.818989403546D-12-1.746000000000D+05
    6.237957519531D+03-4.370288848877D-01 3.725290298462D-09 0.000000000000D+00
    2.278765087891D+04-1.257054328918D+00 9.313225746155D-10 2.000000000000D+00
    9.662961914063D+03 3.249188423157D+00-9.313225746155D-10 0.000000000000D+00
24 20  9 30 21 15  2.0 1.518893986940D-05 1.818989403546D-12 7.560000000000D+04
    4.929713378906D+03-1.032500267029D+00 2.793967723846D-09 0.000000000000D+00
    2.001028759766D+04-1.787163734436D+00 0.000000000000D+00 2.000000000000D+00
    1.506329003906D+04 2.712315559387D+00-1.862645149231D-09 0.000000000000D+00
24 20  9 30 21 45  2.0 1.519173383713D-05 1.818989403546D-12-2.574000000000D+05
    2.495670898438D+03-1.669724464417D+00 1.862645149231D-09 0.000000000000D+00
    1.651730908203D+04-2.046368598938D+00 0.000000000000D+00 2.000000000000D+00
    1.930147216797D+04 1.966273307800D+00-1.862645149231D-09 0.000000000000D+00
24 20  9 30 22 15  2.0 1.519545912743D-05 1.818989403546D-12-2.556000000000D+05
   -1.039260253906D+03-2.237133026123D+00 0.000000000000D+00 0.000000000000D+00
    1.281391894531D+04-2.022859573364D+00-9.313225746155D-10 2.000000000000D+00
    2.205061083984D+04 1.068515777588D+00-1.862645149231D-09 0.000000000000D+00
24 20  9 30 22 45  2.0 1.519825309515D-05 1.818989403546D-12-2.538000000000D+05
   -5.452902832031D+03-2.630201339722D+00-9.313225746155D-10 0.000000000000D+00
    9.385203613281D+03-1.750372886658D+00-9.313225746155D-10 2.000000000000D+00
    2.309841162109D+04 8.811092376709D-02-1.862645149231D-09 0.000000000000D+00
24 20  9 30 23 15  2.0 1.520104706287D-05 1.818989403546D-12-2.520000000000D+05
   -1.035460253906D+04-2.768925666809D+00-1.862645149231D-09 0.000000000000D+00
    6.618668457031D+03-1.301975250244D+00-9.313225746155D-10 2.000000000000D+00
    2.236347802734D+04-8.994913101196D-01-1.862645149231D-09 0.000000000000D+00
24 20  9 30 23 45  2.0 1.520290970802D-05 1.818989403546D-12-2.502000000000D+05
   -1.524234521484D+04-2.611380577087D+00-3.725290298462D-09 0.000000000000D+00
    4.743979980469D+03-7.774276733398D-01 0.000000000000D+00 2.000000000000D+00
    1.990170410156D+04-1.818166732788D+00-9.313225746155D-10 0.000000000000D+00
24 20 10  1  0 15  2.0 1.520384103060D-05 1.818989403546D-12-3.348000000000D+05
   -1.957902099609D+04-2.161132812500D+00-3.725290298462D-09 0.000000000000D+00
    3.799774902344D+03-2.861671447754D-01 9.313225746155D-10 2.000000000000D+00
    1.590224707031D+04-2.596920013428D+00-9.313225746155D-10 0.000000000000D+00
24 20 10  1  0 45  2.0 1.520663499832D-05 9.094947017729D-13-3.330000000000D+05
   -2.287546337891D+04-1.467247962952D+00-4.656612873077D-09 0.000000000000D+00
    3.632959960938D+03 7.128143310547D-02 1.862645149231D-09 2.000000000000D+00
    1.067329492188D+04-3.175354003906D+00 0.000000000000D+00 0.000000000000D+00
24 20 10  1  1 15  2.0 1.520849764347D-05 9.094947017729D-13-3.312000000000D+05
   -2.476669238281D+04-6.168203353882D-01-3.725290298462D-09 0.000000000000D+00
    3.930612304688D+03 2.204256057739D-01 2.793967723846D-09 2.000000000000D+00
    4.618586425781D+03-3.508405685425D+00 0.000000000000D+00 0.000000000000D+00
24 20 10  1  9 45  2.0 1.525040715933D-05 1.818989403546D-12-2.997900000000D+05
    5.040473144531D+03 2.056781768799D+00 0.000000000000D+00 0.000000000000D+00
   -1.037286865234D+04 2.338403701782D+00 9.313225746155D-10 2.000000000000D+00
    2.276932666016D+04 6.081275939941D-01-1.862645149231D-09 0.000000000000D+00
24 20 10  1 10 15  2.0 1.525320112705D-05 1.818989403546D-12-2.988000000000D+05
    9.083804199219D+03 2.399527549744D+00 9.313225746155D-10 0.000000000000D+00
   -6.408800781250D+03 2.028867721558D+00 9.313225746155D-10 2.000000000000D+00
    2.297125292969D+04-3.852863311768D-01-1.862645149231D-09 0.000000000000D+00
24 20 10  1 10 45  2.0 1.525599509478D-05 1.818989403546D-12-2.970000000000D+05
    1.352748535156D+04 2.491428375244D+00 2.793967723846D-09 0.000000000000D+00
   -3.177480957031D+03 1.539340972900D+00 9.313225746155D-10 2.000000000000D+00
    2.139990185547D+04-1.349428176880D+00-1.862645149231D-09 0.000000000000D+00
24 20 10  1 11 15  2.0 1.525878906250D-05 1.818989403546D-12-2.952000000000D+05
    1.787749658203D+04 2.292459487915D+00 3.725290298462D-09 0.000000000000D+00
   -9.147490234375D+02 9.708414077759D-01 0.000000000000D+00 2.000000000000D+00
    1.817567041016D+04-2.209901809692D+00-1.862645149231D-09 0.000000000000D+00
24 20 10  1 18 15  2.0 1.528579741716D-05 1.818989403546D-12-2.698800000000D+05
   -2.998956542969D+03 1.000671386719D-01 9.313225746155D-10 0.000000000000D+00
    2.513795214844D+04 4.671735763550D-01 5.587935447693D-09 2.000000000000D+00
   -3.213355957031D+03 3.542398452759D+00 0.000000000000D+00 0.000000000000D+00
24 20 10  1 18 45  2.0 1.528859138489D-05 1.818989403546D-12-2.682000000000D+05
   -2.690223144531D+03 2.019586563110D-01 1.862645149231D-09 0.000000000000D+00
    2.517778320313D+04-4.275321960449D-01 4.656612873077D-09 2.000000000000D+00
    3.204758300781D+03 3.542595863342D+00 0.000000000000D+00 0.000000000000D+00
24 20 10  1 19 15  2.0 1.529138535261D-05 1.818989403546D-12-2.664000000000D+05
   -2.419414062500D+03 5.953407287598D-02 2.793967723846D-09 0.000000000000D+00
    2.361791845703D+04-1.290588378906D+00 3.725290298462D-09 2.000000000000D+00
    9.375508300781D+03 3.269366264343D+00-9.313225746155D-10 0.000000000000D+00
24 20 10  1 19 45  2.0 1.529417932034D-05 1.818989403546D-12-2.646000000000D+05
   -2.604204101563D+03-2.953844070435D-01 2.793967723846D-09 0.000000000000D+00
    2.061852685547D+04-2.009637832642D+00 1.862645149231D-09 2.000000000000D+00
    1.482277783203D+04 2.743955612183D+00-1.862645149231D-09 0.000000000000D+00
24 20 10  1 20 15  2.0 1.529697328806D-05 1.818989403546D-12-2.628000000000D+05
   -3.568033691406D+03-7.914276123047D-01 1.862645149231D-09 0.000000000000D+00
    1.652435253906D+04-2.494714736938D+00 9.313225746155D-10 2.000000000000D+00
    1.912646093750D+04 2.006942749023D+00-1.862645149231D-09 0.000000000000D+00
24 20 10  1 20 45  2.0 1.529976725578D-05 1.818989403546D-12-2.610000000000D+05
   -5.478941894531D+03-1.329769134521D+00 9.313225746155D-10 0.000000000000D+00
    1.181087695313D+04-2.692443847656D+00 0.000000000000D+00 2.000000000000D+00
    2.195462890625D+04 1.115090370178D+00-1.862645149231D-09 0.000000000000D+00
24 20 10  1 21 15  2.0 1.530256122351D-05 1.818989403546D-12 7.560000000000D+04
   -8.314664062500D+03-1.800809860229D+00 0.000000000000D+00 0.000000000000D+00
    7.010041503906D+03-2.594247817993D+00-9.313225746155D-10 2.000000000000D+00
    2.308891650391D+04 1.370124816895D-01-1.862645149231D-09 0.000000000000D+00
24 20 10  1 21 45  2.0 1.530535519123D-05 1.818989403546D-12-3.438000000000D+05
   -1.185985644531D+04-2.102702140808D+00-9.313225746155D-10 0.000000000000D+00
    2.627676269531D+03-2.237231254578D+00-1.862645149231D-09 2.000000000000D+00
    2.244127978516D+04-8.520240783691D-01-1.862645149231D-09 0.000000000000D+00
